[{"OBJECT_NAME":"ORBCOMM FM06","OBJECT_ID":"1997-084G","EPOCH":"2026-04-27T05:28:56.020224","MEAN_MOTION":14.47432609,"ECCENTRICITY":5.177e-5,"INCLINATION":45.0141,"RA_OF_ASC_NODE":298.0056,"ARG_OF_PERICENTER":72.1079,"MEAN_ANOMALY":97.3998,"EPHEMERIS_TYPE":0,"CLASSIFICATION_TYPE":"U","NORAD_CAT_ID":25118,"ELEMENT_SET_NO":999,"REV_AT_EPOCH":48700,"BSTAR":0.00043225259,"MEAN_MOTION_DOT":1.456e-5,"MEAN_MOTION_DDOT":0},{"OBJECT_NAME":"ORBCOMM FM04","OBJECT_ID":"1998-007C","EPOCH":"2026-04-27T06:02:48.422976","MEAN_MOTION":14.35634393,"ECCENTRICITY":0.00392918,"INCLINATION":107.9614,"RA_OF_ASC_NODE":64.6023,"ARG_OF_PERICENTER":53.8806,"MEAN_ANOMALY":306.5962,"EPHEMERIS_TYPE":0,"CLASSIFICATION_TYPE":"U","NORAD_CAT_ID":25159,"ELEMENT_SET_NO":999,"REV_AT_EPOCH":46928,"BSTAR":0.00042547832,"MEAN_MOTION_DOT":1.107e-5,"MEAN_MOTION_DDOT":0},{"OBJECT_NAME":"ORBCOMM FM19","OBJECT_ID":"1998-046C","EPOCH":"2026-04-27T01:34:09.891264","MEAN_MOTION":14.39390939,"ECCENTRICITY":0.00023635,"INCLINATION":44.9929,"RA_OF_ASC_NODE":126.5407,"ARG_OF_PERICENTER":6.0271,"MEAN_ANOMALY":32.2824,"EPHEMERIS_TYPE":0,"CLASSIFICATION_TYPE":"U","NORAD_CAT_ID":25415,"ELEMENT_SET_NO":999,"REV_AT_EPOCH":44941,"BSTAR":0.00033306622,"MEAN_MOTION_DOT":9.03e-6,"MEAN_MOTION_DDOT":0},{"OBJECT_NAME":"ORBCOMM FM20","OBJECT_ID":"1998-046D","EPOCH":"2026-04-27T02:09:15.760800","MEAN_MOTION":14.37986711,"ECCENTRICITY":0.00017825,"INCLINATION":44.9925,"RA_OF_ASC_NODE":133.7885,"ARG_OF_PERICENTER":284.3473,"MEAN_ANOMALY":75.7177,"EPHEMERIS_TYPE":0,"CLASSIFICATION_TYPE":"U","NORAD_CAT_ID":25416,"ELEMENT_SET_NO":999,"REV_AT_EPOCH":44943,"BSTAR":0.0002321791,"MEAN_MOTION_DOT":5.66e-6,"MEAN_MOTION_DDOT":0},{"OBJECT_NAME":"ORBCOMM FM27","OBJECT_ID":"1998-053G","EPOCH":"2026-04-26T12:55:09.321312","MEAN_MOTION":14.3904132,"ECCENTRICITY":0.00014282,"INCLINATION":45.0048,"RA_OF_ASC_NODE":220.6485,"ARG_OF_PERICENTER":232.4441,"MEAN_ANOMALY":127.6278,"EPHEMERIS_TYPE":0,"CLASSIFICATION_TYPE":"U","NORAD_CAT_ID":25481,"ELEMENT_SET_NO":999,"REV_AT_EPOCH":44279,"BSTAR":0.00034515814,"MEAN_MOTION_DOT":9.33e-6,"MEAN_MOTION_DDOT":0},{"OBJECT_NAME":"ORBCOMM FM32","OBJECT_ID":"1999-065C","EPOCH":"2026-04-27T04:40:53.866560","MEAN_MOTION":14.37055727,"ECCENTRICITY":0.00043749,"INCLINATION":45.0162,"RA_OF_ASC_NODE":54.5885,"ARG_OF_PERICENTER":170.0963,"MEAN_ANOMALY":189.9972,"EPHEMERIS_TYPE":0,"CLASSIFICATION_TYPE":"U","NORAD_CAT_ID":25982,"ELEMENT_SET_NO":999,"REV_AT_EPOCH":37975,"BSTAR":0.00034250369,"MEAN_MOTION_DOT":8.84e-6,"MEAN_MOTION_DDOT":0},{"OBJECT_NAME":"ORBCOMM FM109","OBJECT_ID":"2014-040A","EPOCH":"2026-04-27T06:42:33.444000","MEAN_MOTION":14.58790321,"ECCENTRICITY":0.00017322,"INCLINATION":47.0043,"RA_OF_ASC_NODE":332.164,"ARG_OF_PERICENTER":334.9295,"MEAN_ANOMALY":25.1506,"EPHEMERIS_TYPE":0,"CLASSIFICATION_TYPE":"U","NORAD_CAT_ID":40086,"ELEMENT_SET_NO":999,"REV_AT_EPOCH":62691,"BSTAR":0.00014445356,"MEAN_MOTION_DOT":5.11e-6,"MEAN_MOTION_DDOT":0},{"OBJECT_NAME":"ORBCOMM FM114","OBJECT_ID":"2015-081A","EPOCH":"2026-04-26T14:41:40.145280","MEAN_MOTION":14.58799723,"ECCENTRICITY":0.0002524,"INCLINATION":47.0045,"RA_OF_ASC_NODE":245.8327,"ARG_OF_PERICENTER":305.7737,"MEAN_ANOMALY":54.2914,"EPHEMERIS_TYPE":0,"CLASSIFICATION_TYPE":"U","NORAD_CAT_ID":41179,"ELEMENT_SET_NO":999,"REV_AT_EPOCH":55022,"BSTAR":0.00015226,"MEAN_MOTION_DOT":5.48e-6,"MEAN_MOTION_DDOT":0},{"OBJECT_NAME":"ORBCOMM FM110","OBJECT_ID":"2015-081D","EPOCH":"2026-04-27T01:55:53.379552","MEAN_MOTION":14.5882139,"ECCENTRICITY":0.00035767,"INCLINATION":47.0018,"RA_OF_ASC_NODE":243.0748,"ARG_OF_PERICENTER":207.9353,"MEAN_ANOMALY":152.1342,"EPHEMERIS_TYPE":0,"CLASSIFICATION_TYPE":"U","NORAD_CAT_ID":41182,"ELEMENT_SET_NO":999,"REV_AT_EPOCH":55016,"BSTAR":0.00017928987,"MEAN_MOTION_DOT":6.75e-6,"MEAN_MOTION_DDOT":0},{"OBJECT_NAME":"ORBCOMM FM118","OBJECT_ID":"2015-081E","EPOCH":"2026-04-27T07:41:43.298592","MEAN_MOTION":14.58819994,"ECCENTRICITY":0.00031908,"INCLINATION":47.0037,"RA_OF_ASC_NODE":242.2646,"ARG_OF_PERICENTER":175.0049,"MEAN_ANOMALY":185.087,"EPHEMERIS_TYPE":0,"CLASSIFICATION_TYPE":"U","NORAD_CAT_ID":41183,"ELEMENT_SET_NO":999,"REV_AT_EPOCH":55030,"BSTAR":0.00019807614,"MEAN_MOTION_DOT":7.64e-6,"MEAN_MOTION_DDOT":0},{"OBJECT_NAME":"ORBCOMM FM112","OBJECT_ID":"2015-081F","EPOCH":"2026-04-27T02:50:03.588576","MEAN_MOTION":14.58814757,"ECCENTRICITY":0.0002682,"INCLINATION":46.9974,"RA_OF_ASC_NODE":151.7003,"ARG_OF_PERICENTER":306.0723,"MEAN_ANOMALY":53.9914,"EPHEMERIS_TYPE":0,"CLASSIFICATION_TYPE":"U","NORAD_CAT_ID":41184,"ELEMENT_SET_NO":999,"REV_AT_EPOCH":55149,"BSTAR":0.00013304043,"MEAN_MOTION_DOT":4.57e-6,"MEAN_MOTION_DDOT":0},{"OBJECT_NAME":"ORBCOMM FM113","OBJECT_ID":"2015-081G","EPOCH":"2026-04-27T03:56:14.787456","MEAN_MOTION":14.58800949,"ECCENTRICITY":0.00021804,"INCLINATION":46.9993,"RA_OF_ASC_NODE":151.861,"ARG_OF_PERICENTER":308.6746,"MEAN_ANOMALY":51.3944,"EPHEMERIS_TYPE":0,"CLASSIFICATION_TYPE":"U","NORAD_CAT_ID":41185,"ELEMENT_SET_NO":999,"REV_AT_EPOCH":55148,"BSTAR":0.0001237648,"MEAN_MOTION_DOT":4.13e-6,"MEAN_MOTION_DDOT":0},{"OBJECT_NAME":"ORBCOMM FM108","OBJECT_ID":"2015-081J","EPOCH":"2026-04-27T06:19:33.990240","MEAN_MOTION":14.58792386,"ECCENTRICITY":0.00032554,"INCLINATION":47.0054,"RA_OF_ASC_NODE":62.9457,"ARG_OF_PERICENTER":316.4775,"MEAN_ANOMALY":43.5853,"EPHEMERIS_TYPE":0,"CLASSIFICATION_TYPE":"U","NORAD_CAT_ID":41187,"ELEMENT_SET_NO":999,"REV_AT_EPOCH":55264,"BSTAR":0.00018216526,"MEAN_MOTION_DOT":6.89e-6,"MEAN_MOTION_DDOT":0},{"OBJECT_NAME":"ORBCOMM FM117","OBJECT_ID":"2015-081K","EPOCH":"2026-04-27T03:51:09.555264","MEAN_MOTION":14.58790145,"ECCENTRICITY":0.00036793,"INCLINATION":47.0022,"RA_OF_ASC_NODE":62.0829,"ARG_OF_PERICENTER":322.4601,"MEAN_ANOMALY":37.6028,"EPHEMERIS_TYPE":0,"CLASSIFICATION_TYPE":"U","NORAD_CAT_ID":41188,"ELEMENT_SET_NO":999,"REV_AT_EPOCH":55267,"BSTAR":0.0001361198,"MEAN_MOTION_DOT":4.71e-6,"MEAN_MOTION_DDOT":0},{"OBJECT_NAME":"ORBCOMM FM116","OBJECT_ID":"2015-081L","EPOCH":"2026-04-27T03:23:36.255840","MEAN_MOTION":14.58812,"ECCENTRICITY":0.00021589,"INCLINATION":47.0009,"RA_OF_ASC_NODE":151.9643,"ARG_OF_PERICENTER":222.7295,"MEAN_ANOMALY":137.3423,"EPHEMERIS_TYPE":0,"CLASSIFICATION_TYPE":"U","NORAD_CAT_ID":41189,"ELEMENT_SET_NO":999,"REV_AT_EPOCH":55148,"BSTAR":0.00014658719,"MEAN_MOTION_DOT":5.21e-6,"MEAN_MOTION_DDOT":0}]
